STARLINK-6355
1 57356U 23099AE  26092.83335647  .00072703  00000+0  40670-2 0  9994
2 57356  43.0003 104.7234 0000484 298.2238 247.3098 15.12562788  5776
